{"type": "FeatureCollection", "features": [ {"type": "Feature", "properties": {"norad_id": 35045, "name": "COSMOS 2251 DEB", "group": "cosmos-2251-debris", "lat": -69.81172530883345, "lon": -88.87220127317367, "alt_km": 774.5810563801251, "timestamp": "2025-12-20T18:51:32.109095+00:00", "meta": {"OBJECT_NAME": "COSMOS 2251 DEB", "OBJECT_ID": "1993-036AHJ", "EPOCH": "2025-12-20T12:28:28.168608", "MEAN_MOTION": 14.00402013, "ECCENTRICITY": 0.01839056, "INCLINATION": 73.7193, "RA_OF_ASC_NODE": 38.9629, "ARG_OF_PERICENTER": 279.9128, "MEAN_ANOMALY": 78.1289, "EPHEMERIS_TYPE": 0, "CLASSIFICATION_TYPE": "U", "NORAD_CAT_ID": 35045, "ELEMENT_SET_NO": 999, "REV_AT_EPOCH": 84752, "BSTAR": 0.0005282021, "MEAN_MOTION_DOT": 8.78e-06, "MEAN_MOTION_DDOT": 0}, "tle": {"line1": "1 35045U 93036AHJ 25354.51977047  .00000878  00000+0  52820-3 0  9999", "line2": "2 35045  73.7193  38.9629 0183905 279.9128  78.1289 14.00402013847526"}}, "geometry": {"type": "Point", "coordinates": [-88.87220127317367, -69.81172530883345]}}, {"type": "Feature", "properties": {"norad_id": 35060, "name": "COSMOS 2251 DEB", "group": "cosmos-2251-debris", "lat": -72.26805392730564, "lon": 165.8909480994086, "alt_km": 749.4598106266367, "timestamp": "2025-12-20T18:51:32.109105+00:00", "meta": {"OBJECT_NAME": "COSMOS 2251 DEB", "OBJECT_ID": "1993-036AHP", "EPOCH": "2025-12-17T09:37:48.798336", "MEAN_MOTION": 14.41611034, "ECCENTRICITY": 0.00186104, "INCLINATION": 74.0362, "RA_OF_ASC_NODE": 235.6937, "ARG_OF_PERICENTER": 321.6138, "MEAN_ANOMALY": 38.3692, "EPHEMERIS_TYPE": 0, "CLASSIFICATION_TYPE": "U", "NORAD_CAT_ID": 35060, "ELEMENT_SET_NO": 999, "REV_AT_EPOCH": 87309, "BSTAR": 0.00026105938, "MEAN_MOTION_DOT": 8.25e-06, "MEAN_MOTION_DDOT": 0}, "tle": {"line1": "1 35060U 93036AHP 25351.40125924  .00000825  00000+0  26106-3 0  9990", "line2": "2 35060  74.0362 235.6937 0018610 321.6138  38.3692 14.41611034873096"}}, "geometry": {"type": "Point", "coordinates": [165.8909480994086, -72.26805392730564]}}, {"type": "Feature", "properties": {"norad_id": 35061, "name": "COSMOS 2251 DEB", "group": "cosmos-2251-debris", "lat": -21.13185754525577, "lon": 116.53337001020296, "alt_km": 699.3067588889808, "timestamp": "2025-12-20T18:51:32.109115+00:00", "meta": {"OBJECT_NAME": "COSMOS 2251 DEB", "OBJECT_ID": "1993-036AHQ", "EPOCH": "2025-12-19T05:57:32.306976", "MEAN_MOTION": 14.67879438, "ECCENTRICITY": 0.0039387, "INCLINATION": 74.0462, "RA_OF_ASC_NODE": 293.1533, "ARG_OF_PERICENTER": 42.1528, "MEAN_ANOMALY": 318.2658, "EPHEMERIS_TYPE": 0, "CLASSIFICATION_TYPE": "U", "NORAD_CAT_ID": 35061, "ELEMENT_SET_NO": 999, "REV_AT_EPOCH": 88670, "BSTAR": 0.00054945, "MEAN_MOTION_DOT": 3.147e-05, "MEAN_MOTION_DDOT": 0}, "tle": {"line1": "1 35061U 93036AHQ 25353.24829059  .00003147  00000+0  54945-3 0  9997", "line2": "2 35061  74.0462 293.1533 0039387  42.1528 318.2658 14.67879438886707"}}, "geometry": {"type": "Point", "coordinates": [116.53337001020296, -21.13185754525577]}}, {"type": "Feature", "properties": {"norad_id": 35062, "name": "COSMOS 2251 DEB", "group": "cosmos-2251-debris", "lat": 36.300033380527765, "lon": 90.92316012515076, "alt_km": 740.2884568787795, "timestamp": "2025-12-20T18:51:32.109125+00:00", "meta": {"OBJECT_NAME": "COSMOS 2251 DEB", "OBJECT_ID": "1993-036AHR", "EPOCH": "2025-12-19T12:18:45.717696", "MEAN_MOTION": 14.22985103, "ECCENTRICITY": 0.0126526, "INCLINATION": 74.0795, "RA_OF_ASC_NODE": 81.1015, "ARG_OF_PERICENTER": 78.7874, "MEAN_ANOMALY": 282.7463, "EPHEMERIS_TYPE": 0, "CLASSIFICATION_TYPE": "U", "NORAD_CAT_ID": 35062, "ELEMENT_SET_NO": 999, "REV_AT_EPOCH": 85595, "BSTAR": 0.0011479, "MEAN_MOTION_DOT": 2.783e-05, "MEAN_MOTION_DDOT": 0}, "tle": {"line1": "1 35062U 93036AHR 25353.51302914  .00002783  00000+0  11479-2 0  9993", "line2": "2 35062  74.0795  81.1015 0126526  78.7874 282.7463 14.22985103855958"}}, "geometry": {"type": "Point", "coordinates": [90.92316012515076, 36.300033380527765]}}, {"type": "Feature", "properties": {"norad_id": 35065, "name": "COSMOS 2251 DEB", "group": "cosmos-2251-debris", "lat": 24.168795444835006, "lon": -173.29404959164566, "alt_km": 736.599439038022, "timestamp": "2025-12-20T18:51:32.109134+00:00", "meta": {"OBJECT_NAME": "COSMOS 2251 DEB", "OBJECT_ID": "1993-036AHU", "EPOCH": "2025-12-19T06:12:25.656192", "MEAN_MOTION": 14.4574331, "ECCENTRICITY": 0.0020018, "INCLINATION": 74.0185, "RA_OF_ASC_NODE": 182.1668, "ARG_OF_PERICENTER": 306.5523, "MEAN_ANOMALY": 53.3791, "EPHEMERIS_TYPE": 0, "CLASSIFICATION_TYPE": "U", "NORAD_CAT_ID": 35065, "ELEMENT_SET_NO": 999, "REV_AT_EPOCH": 68445, "BSTAR": 0.00028971, "MEAN_MOTION_DOT": 1.002e-05, "MEAN_MOTION_DDOT": 0}, "tle": {"line1": "1 35065U 93036AHU 25353.25863028  .00001002  00000+0  28971-3 0  9994", "line2": "2 35065  74.0185 182.1668 0020018 306.5523  53.3791 14.45743310684450"}}, "geometry": {"type": "Point", "coordinates": [-173.29404959164566, 24.168795444835006]}}, {"type": "Feature", "properties": {"norad_id": 35071, "name": "COSMOS 2251 DEB", "group": "cosmos-2251-debris", "lat": 58.089298871413355, "lon": -50.68219042920369, "alt_km": 530.9126373356403, "timestamp": "2025-12-20T18:51:32.109144+00:00", "meta": {"OBJECT_NAME": "COSMOS 2251 DEB", "OBJECT_ID": "1993-036AJA", "EPOCH": "2025-12-15T18:34:31.974816", "MEAN_MOTION": 15.0351885, "ECCENTRICITY": 0.00682233, "INCLINATION": 73.9308, "RA_OF_ASC_NODE": 167.1964, "ARG_OF_PERICENTER": 62.71, "MEAN_ANOMALY": 298.1014, "EPHEMERIS_TYPE": 0, "CLASSIFICATION_TYPE": "U", "NORAD_CAT_ID": 35071, "ELEMENT_SET_NO": 999, "REV_AT_EPOCH": 67582, "BSTAR": 0.00048026378, "MEAN_MOTION_DOT": 6.858e-05, "MEAN_MOTION_DDOT": 0}, "tle": {"line1": "1 35071U 93036AJA 25349.77398119  .00006858  00000+0  48026-3 0  9994", "line2": "2 35071  73.9308 167.1964 0068223  62.7100 298.1014 15.03518850675828"}}, "geometry": {"type": "Point", "coordinates": [-50.68219042920369, 58.089298871413355]}}, {"type": "Feature", "properties": {"norad_id": 35073, "name": "COSMOS 2251 DEB", "group": "cosmos-2251-debris", "lat": 29.996217863900075, "lon": 124.63577028354881, "alt_km": 562.2042212919923, "timestamp": "2025-12-20T18:51:32.109154+00:00", "meta": {"OBJECT_NAME": "COSMOS 2251 DEB", "OBJECT_ID": "1993-036AJC", "EPOCH": "2025-12-15T05:25:47.046144", "MEAN_MOTION": 15.00831653, "ECCENTRICITY": 0.00109074, "INCLINATION": 73.9997, "RA_OF_ASC_NODE": 325.5063, "ARG_OF_PERICENTER": 67.0121, "MEAN_ANOMALY": 293.2216, "EPHEMERIS_TYPE": 0, "CLASSIFICATION_TYPE": "U", "NORAD_CAT_ID": 35073, "ELEMENT_SET_NO": 999, "REV_AT_EPOCH": 67516, "BSTAR": 0.001951072, "MEAN_MOTION_DOT": 0.00024882, "MEAN_MOTION_DDOT": 0}, "tle": {"line1": "1 35073U 93036AJC 25349.22623896  .00024882  00000+0  19511-2 0  9992", "line2": "2 35073  73.9997 325.5063 0010907  67.0121 293.2216 15.00831653675164"}}, "geometry": {"type": "Point", "coordinates": [124.63577028354881, 29.996217863900075]}}, {"type": "Feature", "properties": {"norad_id": 35284, "name": "COSMOS 2251 DEB", "group": "cosmos-2251-debris", "lat": -42.474465061283695, "lon": 84.78884569463776, "alt_km": 772.4601511674127, "timestamp": "2025-12-20T18:51:32.109164+00:00", "meta": {"OBJECT_NAME": "COSMOS 2251 DEB", "OBJECT_ID": "1993-036AJN", "EPOCH": "2025-12-20T11:57:49.053888", "MEAN_MOTION": 14.38325797, "ECCENTRICITY": 0.00170776, "INCLINATION": 74.0488, "RA_OF_ASC_NODE": 250.1381, "ARG_OF_PERICENTER": 325.4276, "MEAN_ANOMALY": 212.2402, "EPHEMERIS_TYPE": 0, "CLASSIFICATION_TYPE": "U", "NORAD_CAT_ID": 35284, "ELEMENT_SET_NO": 999, "REV_AT_EPOCH": 65637, "BSTAR": 0.00012056337, "MEAN_MOTION_DOT": 3.41e-06, "MEAN_MOTION_DDOT": 0}, "tle": {"line1": "1 35284U 93036AJN 25354.49848442  .00000341  00000+0  12056-3 0  9999", "line2": "2 35284  74.0488 250.1381 0017077 325.4276 212.2402 14.38325797656375"}}, "geometry": {"type": "Point", "coordinates": [84.78884569463776, -42.474465061283695]}}, {"type": "Feature", "properties": {"norad_id": 35287, "name": "COSMOS 2251 DEB", "group": "cosmos-2251-debris", "lat": -15.350466038844274, "lon": -103.15714667172395, "alt_km": 762.3351711710529, "timestamp": "2025-12-20T18:51:32.109174+00:00", "meta": {"OBJECT_NAME": "COSMOS 2251 DEB", "OBJECT_ID": "1993-036AJR", "EPOCH": "2025-12-20T04:35:49.901856", "MEAN_MOTION": 14.36382318, "ECCENTRICITY": 0.00179029, "INCLINATION": 74.0304, "RA_OF_ASC_NODE": 262.443, "ARG_OF_PERICENTER": 357.4612, "MEAN_ANOMALY": 155.1541, "EPHEMERIS_TYPE": 0, "CLASSIFICATION_TYPE": "U", "NORAD_CAT_ID": 35287, "ELEMENT_SET_NO": 999, "REV_AT_EPOCH": 86999, "BSTAR": 9.9147668e-05, "MEAN_MOTION_DOT": 2.64e-06, "MEAN_MOTION_DDOT": 0}, "tle": {"line1": "1 35287U 93036AJR 25354.19154979  .00000264  00000+0  99148-4 0  9996", "line2": "2 35287  74.0304 262.4430 0017902 357.4612 155.1541 14.36382318869995"}}, "geometry": {"type": "Point", "coordinates": [-103.15714667172395, -15.350466038844274]}}, {"type": "Feature", "properties": {"norad_id": 35288, "name": "COSMOS 2251 DEB", "group": "cosmos-2251-debris", "lat": -69.8333766592285, "lon": -128.7840721788737, "alt_km": 657.3862576111496, "timestamp": "2025-12-20T18:51:32.109184+00:00", "meta": {"OBJECT_NAME": "COSMOS 2251 DEB", "OBJECT_ID": "1993-036AJS", "EPOCH": "2025-12-18T09:59:01.456512", "MEAN_MOTION": 14.6551495, "ECCENTRICITY": 0.00391709, "INCLINATION": 73.9507, "RA_OF_ASC_NODE": 4.189, "ARG_OF_PERICENTER": 236.8984, "MEAN_ANOMALY": 122.8422, "EPHEMERIS_TYPE": 0, "CLASSIFICATION_TYPE": "U", "NORAD_CAT_ID": 35288, "ELEMENT_SET_NO": 999, "REV_AT_EPOCH": 87961, "BSTAR": 0.00084957845, "MEAN_MOTION_DOT": 4.628e-05, "MEAN_MOTION_DDOT": 0}, "tle": {"line1": "1 35288U 93036AJS 25352.41598908  .00004628  00000+0  84958-3 0  9994", "line2": "2 35288  73.9507   4.1890 0039170 236.8984 122.8422 14.65514950879613"}}, "geometry": {"type": "Point", "coordinates": [-128.7840721788737, -69.8333766592285]}}]}